[{"OBJECT_NAME":"STARLINK-11715 [DTC]","OBJECT_ID":"2025-107N","EPOCH":"2025-08-28T20:42:18.349632","MEAN_MOTION":15.711274,"ECCENTRICITY":0.00032119,"INCLINATION":42.9976,"RA_OF_ASC_NODE":180.3286,"ARG_OF_PERICENTER":235.91,"MEAN_ANOMALY":124.1463,"EPHEMERIS_TYPE":0,"CLASSIFICATION_TYPE":"U","NORAD_CAT_ID":64076,"ELEMENT_SET_NO":999,"REV_AT_EPOCH":1697,"BSTAR":0.0024872384,"MEAN_MOTION_DOT":0.00335989,"MEAN_MOTION_DDOT":0},{"OBJECT_NAME":"STARLINK-34201","OBJECT_ID":"2025-107P","EPOCH":"2025-08-28T06:04:58.168128","MEAN_MOTION":15.2760144,"ECCENTRICITY":0.00017692,"INCLINATION":43.0005,"RA_OF_ASC_NODE":214.2548,"ARG_OF_PERICENTER":257.9895,"MEAN_ANOMALY":102.0759,"EPHEMERIS_TYPE":0,"CLASSIFICATION_TYPE":"U","NORAD_CAT_ID":64077,"ELEMENT_SET_NO":999,"REV_AT_EPOCH":1544,"BSTAR":0.0010765143,"MEAN_MOTION_DOT":0.000295,"MEAN_MOTION_DDOT":0},{"OBJECT_NAME":"STARLINK-34190","OBJECT_ID":"2025-107Q","EPOCH":"2025-08-28T10:10:25.957056","MEAN_MOTION":15.27586871,"ECCENTRICITY":0.00012378,"INCLINATION":42.9987,"RA_OF_ASC_NODE":212.9503,"ARG_OF_PERICENTER":266.9249,"MEAN_ANOMALY":93.1461,"EPHEMERIS_TYPE":0,"CLASSIFICATION_TYPE":"U","NORAD_CAT_ID":64078,"ELEMENT_SET_NO":999,"REV_AT_EPOCH":1656,"BSTAR":0.00070536459,"MEAN_MOTION_DOT":0.00019203,"MEAN_MOTION_DDOT":0},{"OBJECT_NAME":"STARLINK-34168","OBJECT_ID":"2025-107R","EPOCH":"2025-08-28T08:10:22.287072","MEAN_MOTION":15.27597398,"ECCENTRICITY":0.00013555,"INCLINATION":42.9996,"RA_OF_ASC_NODE":213.1835,"ARG_OF_PERICENTER":274.0192,"MEAN_ANOMALY":86.0505,"EPHEMERIS_TYPE":0,"CLASSIFICATION_TYPE":"U","NORAD_CAT_ID":64079,"ELEMENT_SET_NO":999,"REV_AT_EPOCH":1655,"BSTAR":0.0013640558,"MEAN_MOTION_DOT":0.00037485,"MEAN_MOTION_DDOT":0},{"OBJECT_NAME":"STARLINK-34098","OBJECT_ID":"2025-107S","EPOCH":"2025-08-28T08:21:28.214208","MEAN_MOTION":15.27591655,"ECCENTRICITY":0.00022005,"INCLINATION":42.9993,"RA_OF_ASC_NODE":213.2379,"ARG_OF_PERICENTER":252.9465,"MEAN_ANOMALY":107.1146,"EPHEMERIS_TYPE":0,"CLASSIFICATION_TYPE":"U","NORAD_CAT_ID":64080,"ELEMENT_SET_NO":999,"REV_AT_EPOCH":1655,"BSTAR":0.0011108594,"MEAN_MOTION_DOT":0.00030444,"MEAN_MOTION_DDOT":0},{"OBJECT_NAME":"STARLINK-34180","OBJECT_ID":"2025-107T","EPOCH":"2025-08-27T07:46:25.336704","MEAN_MOTION":15.27592858,"ECCENTRICITY":0.00012348,"INCLINATION":43.002,"RA_OF_ASC_NODE":219.3176,"ARG_OF_PERICENTER":266.8515,"MEAN_ANOMALY":93.2195,"EPHEMERIS_TYPE":0,"CLASSIFICATION_TYPE":"U","NORAD_CAT_ID":64081,"ELEMENT_SET_NO":999,"REV_AT_EPOCH":1639,"BSTAR":0.0008440668,"MEAN_MOTION_DOT":0.00023046,"MEAN_MOTION_DDOT":0},{"OBJECT_NAME":"STARLINK-34171","OBJECT_ID":"2025-107U","EPOCH":"2025-08-28T09:38:56.808960","MEAN_MOTION":15.27611434,"ECCENTRICITY":0.00057044,"INCLINATION":42.9995,"RA_OF_ASC_NODE":212.7804,"ARG_OF_PERICENTER":238.4394,"MEAN_ANOMALY":121.5901,"EPHEMERIS_TYPE":0,"CLASSIFICATION_TYPE":"U","NORAD_CAT_ID":64082,"ELEMENT_SET_NO":999,"REV_AT_EPOCH":1656,"BSTAR":0.0016545223,"MEAN_MOTION_DOT":0.0004561,"MEAN_MOTION_DDOT":0},{"OBJECT_NAME":"STARLINK-34126","OBJECT_ID":"2025-107V","EPOCH":"2025-08-28T07:33:34.545024","MEAN_MOTION":15.27599625,"ECCENTRICITY":0.00018101,"INCLINATION":43.0019,"RA_OF_ASC_NODE":213.8545,"ARG_OF_PERICENTER":263.4322,"MEAN_ANOMALY":96.6323,"EPHEMERIS_TYPE":0,"CLASSIFICATION_TYPE":"U","NORAD_CAT_ID":64083,"ELEMENT_SET_NO":999,"REV_AT_EPOCH":1545,"BSTAR":0.0015561974,"MEAN_MOTION_DOT":0.00042836,"MEAN_MOTION_DDOT":0},{"OBJECT_NAME":"STARLINK-34157","OBJECT_ID":"2025-107W","EPOCH":"2025-08-28T08:17:46.267296","MEAN_MOTION":15.27586344,"ECCENTRICITY":0.00014944,"INCLINATION":42.9989,"RA_OF_ASC_NODE":213.2174,"ARG_OF_PERICENTER":267.9131,"MEAN_ANOMALY":92.1549,"EPHEMERIS_TYPE":0,"CLASSIFICATION_TYPE":"U","NORAD_CAT_ID":64084,"ELEMENT_SET_NO":999,"REV_AT_EPOCH":1653,"BSTAR":0.00078848803,"MEAN_MOTION_DOT":0.00021503,"MEAN_MOTION_DDOT":0},{"OBJECT_NAME":"STARLINK-34140","OBJECT_ID":"2025-107X","EPOCH":"2025-08-28T07:13:13.806336","MEAN_MOTION":15.27623622,"ECCENTRICITY":0.0001067,"INCLINATION":42.9983,"RA_OF_ASC_NODE":213.7445,"ARG_OF_PERICENTER":249.5287,"MEAN_ANOMALY":110.545,"EPHEMERIS_TYPE":0,"CLASSIFICATION_TYPE":"U","NORAD_CAT_ID":64085,"ELEMENT_SET_NO":999,"REV_AT_EPOCH":1652,"BSTAR":0.00098874299,"MEAN_MOTION_DOT":0.00027082,"MEAN_MOTION_DDOT":0},{"OBJECT_NAME":"STARLINK-34132","OBJECT_ID":"2025-107Y","EPOCH":"2025-08-28T07:28:01.275168","MEAN_MOTION":15.27592015,"ECCENTRICITY":0.00012606,"INCLINATION":43.0018,"RA_OF_ASC_NODE":213.8236,"ARG_OF_PERICENTER":267.4869,"MEAN_ANOMALY":92.5839,"EPHEMERIS_TYPE":0,"CLASSIFICATION_TYPE":"U","NORAD_CAT_ID":64086,"ELEMENT_SET_NO":999,"REV_AT_EPOCH":1651,"BSTAR":0.0011098748,"MEAN_MOTION_DOT":0.00030416,"MEAN_MOTION_DDOT":0},{"OBJECT_NAME":"STARLINK-34178","OBJECT_ID":"2025-110A","EPOCH":"2025-08-28T12:12:05.555232","MEAN_MOTION":15.39621826,"ECCENTRICITY":0.00016388,"INCLINATION":53.1581,"RA_OF_ASC_NODE":208.4672,"ARG_OF_PERICENTER":65.4944,"MEAN_ANOMALY":294.6232,"EPHEMERIS_TYPE":0,"CLASSIFICATION_TYPE":"U","NORAD_CAT_ID":64096,"ELEMENT_SET_NO":999,"REV_AT_EPOCH":1624,"BSTAR":0.0013190428,"MEAN_MOTION_DOT":0.0005273,"MEAN_MOTION_DDOT":0},{"OBJECT_NAME":"STARLINK-34174","OBJECT_ID":"2025-110B","EPOCH":"2025-08-27T08:03:26.146656","MEAN_MOTION":15.3965069,"ECCENTRICITY":5.639e-5,"INCLINATION":53.1582,"RA_OF_ASC_NODE":214.6625,"ARG_OF_PERICENTER":108.2185,"MEAN_ANOMALY":251.8881,"EPHEMERIS_TYPE":0,"CLASSIFICATION_TYPE":"U","NORAD_CAT_ID":64097,"ELEMENT_SET_NO":999,"REV_AT_EPOCH":1605,"BSTAR":0.0010741676,"MEAN_MOTION_DOT":0.00042851,"MEAN_MOTION_DDOT":0},{"OBJECT_NAME":"STARLINK-34146","OBJECT_ID":"2025-110C","EPOCH":"2025-08-28T07:18:25.098624","MEAN_MOTION":15.39649215,"ECCENTRICITY":8.257e-5,"INCLINATION":53.1584,"RA_OF_ASC_NODE":210.0426,"ARG_OF_PERICENTER":115.1673,"MEAN_ANOMALY":244.9417,"EPHEMERIS_TYPE":0,"CLASSIFICATION_TYPE":"U","NORAD_CAT_ID":64098,"ELEMENT_SET_NO":999,"REV_AT_EPOCH":1620,"BSTAR":0.0013434821,"MEAN_MOTION_DOT":0.0005377,"MEAN_MOTION_DDOT":0},{"OBJECT_NAME":"STARLINK-34074","OBJECT_ID":"2025-110D","EPOCH":"2025-08-28T07:11:44.023776","MEAN_MOTION":15.39663483,"ECCENTRICITY":0.00011656,"INCLINATION":53.1545,"RA_OF_ASC_NODE":210.0133,"ARG_OF_PERICENTER":110.717,"MEAN_ANOMALY":249.396,"EPHEMERIS_TYPE":0,"CLASSIFICATION_TYPE":"U","NORAD_CAT_ID":64099,"ELEMENT_SET_NO":999,"REV_AT_EPOCH":1620,"BSTAR":0.0016895466,"MEAN_MOTION_DOT":0.00067882,"MEAN_MOTION_DDOT":0},{"OBJECT_NAME":"STARLINK-34082","OBJECT_ID":"2025-110E","EPOCH":"2025-08-28T10:39:13.762656","MEAN_MOTION":15.3963072,"ECCENTRICITY":0.00011683,"INCLINATION":53.1579,"RA_OF_ASC_NODE":209.4912,"ARG_OF_PERICENTER":116.8429,"MEAN_ANOMALY":243.2696,"EPHEMERIS_TYPE":0,"CLASSIFICATION_TYPE":"U","NORAD_CAT_ID":64100,"ELEMENT_SET_NO":999,"REV_AT_EPOCH":1622,"BSTAR":0.0010373437,"MEAN_MOTION_DOT":0.00041333,"MEAN_MOTION_DDOT":0}]
