STARLINK-11715 [DTC]    
1 64076U 25107N   25240.86271238  .00335989  00000+0  24872-2 0  9999
2 64076  42.9976 180.3286 0003211 235.9100 124.1463 15.71127400 16979
STARLINK-34201          
1 64077U 25107P   25240.25345102  .00029500  00000+0  10765-2 0  9990
2 64077  43.0005 214.2548 0001769 257.9895 102.0759 15.27601440 15440
STARLINK-34190          
1 64078U 25107Q   25240.42391154  .00019203  00000+0  70536-3 0  9990
2 64078  42.9987 212.9503 0001237 266.9249  93.1461 15.27586871 16561
STARLINK-34168          
1 64079U 25107R   25240.34053573  .00037485  00000+0  13641-2 0  9997
2 64079  42.9996 213.1835 0001355 274.0192  86.0505 15.27597398 16556
STARLINK-34098          
1 64080U 25107S   25240.34824322  .00030444  00000+0  11109-2 0  9992
2 64080  42.9993 213.2379 0002200 252.9465 107.1146 15.27591655 16553
STARLINK-34180          
1 64081U 25107T   25239.32390436  .00023046  00000+0  84407-3 0  9995
2 64081  43.0020 219.3176 0001234 266.8515  93.2195 15.27592858 16392
STARLINK-34171          
1 64082U 25107U   25240.40204640  .00045610  00000+0  16545-2 0  9996
2 64082  42.9995 212.7804 0005704 238.4394 121.5901 15.27611434 16564
STARLINK-34126          
1 64083U 25107V   25240.31498316  .00042836  00000+0  15562-2 0  9997
2 64083  43.0019 213.8545 0001810 263.4322  96.6323 15.27599625 15455
STARLINK-34157          
1 64084U 25107W   25240.34567439  .00021503  00000+0  78849-3 0  9990
2 64084  42.9989 213.2174 0001494 267.9131  92.1549 15.27586344 16532
STARLINK-34140          
1 64085U 25107X   25240.30085424  .00027082  00000+0  98874-3 0  9994
2 64085  42.9983 213.7445 0001067 249.5287 110.5450 15.27623622 16523
STARLINK-34132          
1 64086U 25107Y   25240.31112587  .00030416  00000+0  11099-2 0  9995
2 64086  43.0018 213.8236 0001260 267.4869  92.5839 15.27592015 16514
STARLINK-34178          
1 64096U 25110A   25240.50839763  .00052730  00000+0  13190-2 0  9990
2 64096  53.1581 208.4672 0001638  65.4944 294.6232 15.39621826 16243
STARLINK-34174          
1 64097U 25110B   25239.33571929  .00042851  00000+0  10742-2 0  9990
2 64097  53.1582 214.6625 0000563 108.2185 251.8881 15.39650690 16056
STARLINK-34146          
1 64098U 25110C   25240.30445716  .00053770  00000+0  13435-2 0  9998
2 64098  53.1584 210.0426 0000825 115.1673 244.9417 15.39649215 16204
STARLINK-34074          
1 64099U 25110D   25240.29981509  .00067882  00000+0  16895-2 0  9994
2 64099  53.1545 210.0133 0001165 110.7170 249.3960 15.39663483 16203
STARLINK-34082          
1 64100U 25110E   25240.44390929  .00041333  00000+0  10373-2 0  9992
2 64100  53.1579 209.4912 0001168 116.8429 243.2696 15.39630720 16226
